     3.04           NAVIGATION DATA     MIXED               RINEX VERSION / TYPE
sbf2rin-13.4.5                          20200725 181531 UTC PGM / RUN BY / DATE 
gfzrnx-1.13-7761    FILE PROCESSING     20200725 181844 UTC COMMENT             
GPSA   8.3819E-09 -7.4506E-09 -5.9605E-08  5.9605E-08       IONOSPHERIC CORR    
GPSB   8.8064E+04 -3.2768E+04 -1.9661E+05  1.9661E+05       IONOSPHERIC CORR    
GAL    4.3750E+01  7.4219E-02 -2.1057E-03  0.0000E+00       IONOSPHERIC CORR    
GPUT  3.7252902985E-09 2.664535259E-15 233472 2039          TIME SYSTEM CORR    
GAUT -9.3132257462E-10 0.000000000E+00      0 2039          TIME SYSTEM CORR    
GAGP  2.2118911147E-09-4.884981308E-15  86400 2039          TIME SYSTEM CORR    
    18                                                      LEAP SECONDS        
                                                            END OF HEADER
E25 2019 02 03 20 10 00 1.904127246235e-03-1.136868377216e-11 0.000000000000e+00
     1.210000000000e+02 5.512500000000e+01 2.524748023032e-09 3.081482657561e+00
     2.617016434669e-06 1.345067285001e-04 1.224316656590e-05 5.440631959915e+03
     7.260000000000e+04 1.117587089539e-08 2.839328802013e+00 2.980232238770e-08
     9.893374168688e-01 9.281250000000e+01-1.003097950553e+00-5.062710882229e-09
    -4.439470636057e-10 2.580000000000e+02 2.039000000000e+03 0.000000000000e+00
     3.120000000000e+00 0.000000000000e+00-9.313225746155e-10 0.000000000000e+00
     7.334000000000e+04 0.000000000000e+00 0.000000000000e+00 0.000000000000e+00
E25 2019 02 03 20 10 00 1.904127246235e-03-1.136868377216e-11 0.000000000000e+00
     1.210000000000e+02 5.512500000000e+01 2.524748023032e-09 3.081482657561e+00
     2.617016434669e-06 1.345067285001e-04 1.224316656590e-05 5.440631959915e+03
     7.260000000000e+04 1.117587089539e-08 2.839328802013e+00 2.980232238770e-08
     9.893374168688e-01 9.281250000000e+01-1.003097950553e+00-5.062710882229e-09
    -4.439470636057e-10 5.170000000000e+02 2.039000000000e+03 0.000000000000e+00
     3.120000000000e+00 0.000000000000e+00-9.313225746155e-10-1.629814505577e-09
     7.331700000000e+04 0.000000000000e+00 0.000000000000e+00 0.000000000000e+00
E25 2019 02 03 20 20 00 1.904120377731e-03-1.136868377216e-11 0.000000000000e+00
     1.220000000000e+02 5.293750000000e+01 2.518319183817e-09-3.126573856751e+00
     2.510845661163e-06 1.342330360785e-04 1.221336424351e-05 5.440632543564e+03
     7.320000000000e+04 9.313225746155e-09 2.839325753292e+00 2.793967723846e-08
     9.893371535436e-01 9.340625000000e+01-1.003842373973e+00-5.061282251293e-09
    -4.428755904031e-10 2.580000000000e+02 2.039000000000e+03 0.000000000000e+00
     3.120000000000e+00 0.000000000000e+00-9.313225746155e-10 0.000000000000e+00
     7.394000000000e+04 0.000000000000e+00 0.000000000000e+00 0.000000000000e+00
E25 2019 02 03 20 20 00 1.904120494146e-03-1.136868377216e-11 0.000000000000e+00
     1.220000000000e+02 5.293750000000e+01 2.518319183817e-09-3.126573856751e+00
     2.510845661163e-06 1.342330360785e-04 1.221336424351e-05 5.440632543564e+03
     7.320000000000e+04 9.313225746155e-09 2.839325753292e+00 2.793967723846e-08
     9.893371535436e-01 9.340625000000e+01-1.003842373973e+00-5.061282251293e-09
    -4.428755904031e-10 5.170000000000e+02 2.039000000000e+03 0.000000000000e+00
     3.120000000000e+00 0.000000000000e+00-9.313225746155e-10-1.629814505577e-09
     7.391700000000e+04 0.000000000000e+00 0.000000000000e+00 0.000000000000e+00
E25 2019 02 03 21 30 00 1.904072880279e-03-1.134026206273e-11 0.000000000000e+00
     1.000000000000e+00 4.753125000000e+01 2.498675508436e-09-2.602511203484e+00
     2.255663275719e-06 1.334775006399e-04 1.202523708344e-05 5.440634315491e+03
     7.740000000000e+04 0.000000000000e+00 2.839304501481e+00 2.235174179077e-08
     9.893352868601e-01 9.743750000000e+01-1.007215529518e+00-5.061996566761e-09
    -4.407326439980e-10 2.580000000000e+02 2.039000000000e+03 0.000000000000e+00
     3.120000000000e+00 0.000000000000e+00-9.313225746155e-10 0.000000000000e+00
     7.844000000000e+04 0.000000000000e+00 0.000000000000e+00 0.000000000000e+00
E25 2019 02 03 21 30 00 1.904072996695e-03-1.135447291745e-11 0.000000000000e+00
     1.000000000000e+00 4.753125000000e+01 2.498675508436e-09-2.602511203484e+00
     2.255663275719e-06 1.334775006399e-04 1.202523708344e-05 5.440634315491e+03
     7.740000000000e+04 0.000000000000e+00 2.839304501481e+00 2.235174179077e-08
     9.893352868601e-01 9.743750000000e+01-1.007215529518e+00-5.061996566761e-09
    -4.407326439980e-10 5.170000000000e+02 2.039000000000e+03 0.000000000000e+00
     3.120000000000e+00 0.000000000000e+00-9.313225746155e-10-1.629814505577e-09
     7.841700000000e+04 0.000000000000e+00 0.000000000000e+00 0.000000000000e+00
E25 2019 02 03 21 40 00 1.904066069983e-03-1.134026206273e-11 0.000000000000e+00
     2.000000000000e+00 4.762500000000e+01 2.504747189917e-09-2.528692845818e+00
     2.263113856316e-06 1.335339620709e-04 1.206248998642e-05 5.440634128571e+03
     7.800000000000e+04-9.313225746155e-09 2.839301486406e+00 2.421438694000e-08
     9.893349811102e-01 9.668750000000e+01-1.006649810319e+00-5.069854036913e-09
    -4.410898017322e-10 2.580000000000e+02 2.039000000000e+03 0.000000000000e+00
     3.120000000000e+00 0.000000000000e+00-9.313225746155e-10 0.000000000000e+00
     7.874000000000e+04 0.000000000000e+00 0.000000000000e+00 0.000000000000e+00
E25 2019 02 03 21 40 00 1.904066186398e-03-1.135447291745e-11 0.000000000000e+00
     2.000000000000e+00 4.762500000000e+01 2.504747189917e-09-2.528692845818e+00
     2.263113856316e-06 1.335339620709e-04 1.206248998642e-05 5.440634128571e+03
     7.800000000000e+04-9.313225746155e-09 2.839301486406e+00 2.421438694000e-08
     9.893349811102e-01 9.668750000000e+01-1.006649810319e+00-5.069854036913e-09
    -4.410898017322e-10 5.170000000000e+02 2.039000000000e+03 0.000000000000e+00
     3.120000000000e+00 0.000000000000e+00-9.313225746155e-10-1.629814505577e-09
     7.871700000000e+04 0.000000000000e+00 0.000000000000e+00 0.000000000000e+00
E25 2019 02 03 21 50 00 1.904059317894e-03-1.134026206273e-11 0.000000000000e+00
     3.000000000000e+00 4.762500000000e+01 2.511890344601e-09-2.455246641346e+00
     2.263113856316e-06 1.336125424132e-04 1.211836934090e-05 5.440633832932e+03
     7.860000000000e+04-1.862645149231e-08 2.839298464018e+00 2.421438694000e-08
     9.893346724345e-01 9.556250000000e+01-1.005711948168e+00-5.078068664800e-09
    -4.407326439980e-10 2.580000000000e+02 2.039000000000e+03 0.000000000000e+00
     3.120000000000e+00 0.000000000000e+00-9.313225746155e-10 0.000000000000e+00
     7.934000000000e+04 0.000000000000e+00 0.000000000000e+00 0.000000000000e+00
E25 2019 02 03 21 50 00 1.904059376102e-03-1.134026206273e-11 0.000000000000e+00
     3.000000000000e+00 4.762500000000e+01 2.511890344601e-09-2.455246641346e+00
     2.263113856316e-06 1.336125424132e-04 1.211836934090e-05 5.440633832932e+03
     7.860000000000e+04-1.862645149231e-08 2.839298464018e+00 2.421438694000e-08
     9.893346724345e-01 9.556250000000e+01-1.005711948168e+00-5.078068664800e-09
    -4.407326439980e-10 5.170000000000e+02 2.039000000000e+03 0.000000000000e+00
     3.120000000000e+00 0.000000000000e+00-9.313225746155e-10-1.629814505577e-09
     7.931700000000e+04 0.000000000000e+00 0.000000000000e+00 0.000000000000e+00
E25 2019 02 03 22 00 00 1.904052449390e-03-1.134026206273e-11 0.000000000000e+00
     4.000000000000e+00 4.737500000000e+01 2.518319183817e-09-2.382162418398e+00
     2.250075340271e-06 1.337033463642e-04 1.219101250172e-05 5.440633440018e+03
     7.920000000000e+04-2.607703208923e-08 2.839295428463e+00 2.235174179077e-08
     9.893343783880e-01 9.406250000000e+01-1.004412101567e+00-5.083068873079e-09
    -4.403754862638e-10 2.580000000000e+02 2.039000000000e+03 0.000000000000e+00
     3.120000000000e+00 0.000000000000e+00-9.313225746155e-10 0.000000000000e+00
     7.994000000000e+04 0.000000000000e+00 0.000000000000e+00 0.000000000000e+00
E25 2019 02 03 22 00 00 1.904052565806e-03-1.134026206273e-11 0.000000000000e+00
     4.000000000000e+00 4.737500000000e+01 2.518319183817e-09-2.382162418398e+00
     2.250075340271e-06 1.337033463642e-04 1.219101250172e-05 5.440633440018e+03
     7.920000000000e+04-2.607703208923e-08 2.839295428463e+00 2.235174179077e-08
     9.893343783880e-01 9.406250000000e+01-1.004412101567e+00-5.083068873079e-09
    -4.403754862638e-10 5.170000000000e+02 2.039000000000e+03 0.000000000000e+00
     3.120000000000e+00 0.000000000000e+00-9.313225746155e-10-1.629814505577e-09
     7.991700000000e+04 0.000000000000e+00 0.000000000000e+00 0.000000000000e+00
E25 2019 02 03 22 10 00 1.904045639094e-03-1.134026206273e-11 0.000000000000e+00
     5.000000000000e+00 4.678125000000e+01 2.524390865298e-09-2.309410816207e+00
     2.222135663033e-06 1.337979920208e-04 1.227669417858e-05 5.440632961273e+03
     7.980000000000e+04-2.793967723846e-08 2.839292381204e+00 2.048909664154e-08
     9.893341033594e-01 9.228125000000e+01-1.002779626894e+00-5.084854661750e-09
    -4.400183285296e-10 2.580000000000e+02 2.039000000000e+03 0.000000000000e+00
     3.120000000000e+00 0.000000000000e+00-9.313225746155e-10 0.000000000000e+00
     8.054000000000e+04 0.000000000000e+00 0.000000000000e+00 0.000000000000e+00
E25 2019 02 03 22 10 00 1.904045697302e-03-1.134026206273e-11 0.000000000000e+00
     5.000000000000e+00 4.678125000000e+01 2.524390865298e-09-2.309410816207e+00
     2.222135663033e-06 1.337979920208e-04 1.227669417858e-05 5.440632961273e+03
     7.980000000000e+04-2.793967723846e-08 2.839292381204e+00 2.048909664154e-08
     9.893341033594e-01 9.228125000000e+01-1.002779626894e+00-5.084854661750e-09
    -4.400183285296e-10 5.170000000000e+02 2.039000000000e+03 0.000000000000e+00
     3.120000000000e+00 0.000000000000e+00-9.313225746155e-10-1.629814505577e-09
     8.051700000000e+04 0.000000000000e+00 0.000000000000e+00 0.000000000000e+00
